OBJECT_NAME,OBJECT_ID,EPOCH,MEAN_MOTION,ECCENTRICITY,INCLINATION,RA_OF_ASC_NODE,ARG_OF_PERICENTER,MEAN_ANOMALY,EPHEMERIS_TYPE,CLASSIFICATION_TYPE,NORAD_CAT_ID,ELEMENT_SET_NO,REV_AT_EPOCH,BSTAR,MEAN_MOTION_DOT,MEAN_MOTION_DDOT
STARLINK-33789,2025-083Z,2026-06-15T17:43:32.694240,15.27589597,.00005333,42.9971,171.3510,279.7971,80.2820,0,U,63657,999,6509,.77833552E-3,.21224E-3,0
STARLINK-33822,2025-083AA,2026-06-16T14:00:01.000224,15.27585594,.00014561,42.9996,166.8633,275.6937,295.2099,0,U,63658,999,566,-.46335866E-4,-.1537E-4,0
STARLINK-33771,2025-083AB,2026-06-15T17:42:51.309504,15.27585408,.00021465,43.0004,174.8830,268.0449,92.0157,0,U,63659,999,6505,.59373562E-3,.16115E-3,0
STARLINK-33810,2025-083AC,2026-06-15T17:30:35.172864,15.27580411,.00021789,43.0026,171.2801,269.4531,90.6071,0,U,63660,999,6509,.57776943E-3,.15671E-3,0
STARLINK-33823,2025-083AD,2026-06-16T06:42:41.753088,15.27606132,.0000939,43.0030,168.5340,264.0108,96.0637,0,U,63661,999,6517,.4273E-3,.11524E-3,0
STARLINK-11651 [DTC],2025-085A,2026-06-16T08:34:13.553184,15.70866020,.00021249,43.0024,43.3304,263.0556,97.0070,0,U,63664,999,6577,.13258303E-2,.173463E-2,0
STARLINK-11672 [DTC],2025-085B,2026-06-16T14:32:49.079904,15.70869562,.0001805,43.0010,41.7519,262.8154,97.2508,0,U,63665,999,6641,.12618187E-2,.164918E-2,0
STARLINK-11666 [DTC],2025-085D,2026-06-15T23:09:46.011168,15.70898929,.0001788,43.0002,46.4382,254.1706,105.8964,0,U,63667,999,6560,.14336E-2,.188186E-2,0
STARLINK-11663 [DTC],2025-085E,2026-06-15T23:02:07.272096,15.70869203,.0001501,42.9996,46.3932,256.6541,103.4160,0,U,63668,999,6570,.13704E-2,.179457E-2,0
STARLINK-11595 [DTC],2025-085F,2026-06-15T22:54:28.418112,15.70892375,.0001463,42.9995,46.3518,240.0552,120.0171,0,U,63669,999,6634,.12845E-2,.16811E-2,0
STARLINK-11599 [DTC],2025-085G,2026-06-15T22:46:49.586592,15.70896212,.0002464,42.9975,46.3073,260.4236,99.6353,0,U,63670,999,6569,.10825E-2,.141179E-2,0
STARLINK-11603 [DTC],2025-085H,2026-06-15T22:39:11.016000,15.70916812,.0001306,43.0011,46.2647,250.4396,109.6331,0,U,63671,999,6569,.11687E-2,.152795E-2,0
STARLINK-11644 [DTC],2025-085J,2026-06-15T22:31:32.229408,15.71003170,.0002159,42.9991,46.2260,265.7600,94.3020,0,U,63672,999,6569,.14053E-2,.185214E-2,0
STARLINK-11634 [DTC],2025-085K,2026-06-16T09:04:47.639424,15.70929841,.00042164,43.0017,43.4969,269.3232,90.7152,0,U,63673,999,6576,.11316355E-2,.147972E-2,0
STARLINK-11656 [DTC],2025-085L,2026-06-16T08:57:11.573568,15.70939825,.0001803,43.0013,43.4521,284.8363,75.2305,0,U,63674,999,6576,.16554476E-2,.218563E-2,0
STARLINK-11655 [DTC],2025-085M,2026-06-16T14:55:44.771808,15.70881102,.00025719,43.0019,41.8764,256.9502,103.1079,0,U,63675,999,6580,.13248027E-2,.173444E-2,0
STARLINK-11661 [DTC],2025-085N,2026-06-16T08:41:51.802368,15.70926958,.00033739,43.0027,43.3642,267.3910,92.6571,0,U,63676,999,6641,.12996317E-2,.170422E-2,0
STARLINK-33816,2025-085P,2026-06-15T19:18:47.623968,15.27581416,.00017847,43.0011,196.9633,271.1700,88.8947,0,U,63677,999,6397,.44368381E-3,.11968E-3,0
STARLINK-33861,2025-085Q,2026-06-15T19:26:12.012000,15.27592858,.0000497,42.9996,197.0052,69.8076,290.2829,0,U,63678,999,6386,.43596338E-3,.11759E-3,0
STARLINK-33850,2025-085R,2026-06-16T09:05:50.688096,15.27588963,.00010483,43.0006,193.5319,270.7735,89.2996,0,U,63679,999,6395,.44534305E-3,.12016E-3,0
STARLINK-33887,2025-085S,2026-06-16T08:21:26.324640,15.27591422,.00029724,42.9982,193.2959,277.9517,82.0997,0,U,63680,999,6402,.48560634E-3,.1313E-3,0
STARLINK-33886,2025-085T,2026-06-16T08:15:53.041824,15.27594528,.00028774,42.9975,193.2650,273.6264,86.4258,0,U,63681,999,6396,.49166534E-3,.13299E-3,0
STARLINK-33840,2025-085U,2026-06-15T19:20:38.392224,15.27581243,.00024194,43.0038,196.9713,268.3192,91.7383,0,U,63682,999,6387,.4560197E-3,.12308E-3,0
STARLINK-33853,2025-085W,2026-06-16T08:34:23.515968,15.27586038,.00010384,43.0021,193.3637,266.7431,93.3302,0,U,63684,999,6396,.48438152E-3,.13093E-3,0
STARLINK-33847,2025-085X,2026-06-16T09:13:14.881728,15.27603762,.00000682,43.0076,193.5674,303.6887,56.3958,0,U,63685,999,6396,.69335922E-3,.1888E-3,0
STARLINK-33880,2025-085Y,2026-06-15T19:24:20.666592,15.27600378,.00012711,43.0010,196.9914,283.8584,76.2126,0,U,63686,999,6398,.73890867E-3,.20139E-3,0
STARLINK-33894,2025-087A,2026-06-16T13:42:17.998560,15.34393626,.00010272,53.1587,118.5065,88.6404,271.4716,0,U,63697,999,6436,.57267463E-3,.19018E-3,0
STARLINK-33922,2025-087B,2026-06-16T13:54:57.581568,15.30204341,.0001403,53.1591,119.9768,82.6859,277.4301,0,U,63698,999,6433,.60664414E-3,.17653E-3,0
STARLINK-33919,2025-087C,2026-06-16T13:41:26.893824,15.30198273,.00016324,53.1587,120.6275,100.6823,259.4361,0,U,63699,999,6433,.38760504E-3,.11137E-3,0
STARLINK-33908,2025-087D,2026-06-16T03:20:53.854944,15.30212238,.00016388,53.1600,122.2023,86.3945,273.7243,0,U,63700,999,6427,.61710367E-3,.17969E-3,0
STARLINK-33950,2025-087E,2026-06-16T06:23:15.609696,15.31699219,.0001244,53.1600,121.5763,76.3713,283.7426,0,U,63701,999,6429,.59151E-3,.18034E-3,0
STARLINK-33939,2025-087F,2026-06-16T13:32:44.403648,15.31709040,.00013366,53.1582,119.8817,102.5269,257.5882,0,U,63702,999,6434,.41924796E-3,.1267E-3,0
STARLINK-33868,2025-087G,2026-06-16T14:25:21.064800,15.30203385,.00011477,53.1602,120.1031,70.9112,289.2013,0,U,63703,999,6434,.57552605E-3,.16726E-3,0
STARLINK-33937,2025-087H,2026-06-16T13:50:24.183456,15.30203871,.00015397,53.1589,119.9535,93.7044,266.4133,0,U,63704,999,6434,.58957419E-3,.17145E-3,0
STARLINK-33848,2025-087J,2026-06-16T04:42:47.781504,15.30202680,.00012951,53.1605,121.8458,87.6324,272.4825,0,U,63705,999,6427,.63545152E-3,.1851E-3,0
STARLINK-33995,2025-087K,2026-06-16T13:33:50.596416,15.30200479,.00013122,53.1573,120.5890,96.0244,264.0907,0,U,63706,999,6433,.46913444E-3,.13561E-3,0
STARLINK-33982,2025-087L,2026-06-16T14:16:13.770048,15.30202846,.00014224,53.1598,120.0611,87.9261,272.1902,0,U,63707,999,6434,.52332737E-3,.15173E-3,0
STARLINK-33915,2025-087M,2026-06-16T14:32:56.400576,15.30213445,.00013281,53.1600,120.1353,88.7436,271.3717,0,U,63708,999,6434,.57125388E-3,.16605E-3,0
STARLINK-33862,2025-087N,2026-06-16T14:23:50.686080,15.30210558,.00014858,53.1601,120.0969,86.2192,273.8978,0,U,63709,999,6434,.45652228E-3,.1319E-3,0
STARLINK-33920,2025-087P,2026-06-16T13:59:37.332672,15.31709128,.0001134,53.1596,119.9987,92.5380,267.5751,0,U,63710,999,6434,.75768578E-3,.23227E-3,0
STARLINK-33580,2025-087Q,2026-06-16T06:16:32.714400,15.31662042,.000124,53.1596,121.5447,93.6721,266.4423,0,U,63711,999,6429,.94476E-3,.29031E-3,0
STARLINK-33783,2025-087R,2026-06-16T13:46:11.037504,15.31710851,.00014195,53.1583,119.9323,79.6368,280.4793,0,U,63712,999,6434,.50986547E-3,.15495E-3,0
STARLINK-33773,2025-087S,2026-06-16T14:26:22.277472,15.31716392,.00013408,53.1591,119.3977,93.5339,266.5815,0,U,63713,999,6435,.56430508E-3,.17195E-3,0
STARLINK-33745,2025-087T,2026-06-16T04:35:12.284160,15.30208965,.00025625,53.1600,121.8099,48.6461,311.4760,0,U,63714,999,6428,.65479584E-3,.1909E-3,0
STARLINK-33728,2025-087U,2026-06-16T14:10:08.968512,15.30204668,.00013712,53.1600,120.0343,88.5540,271.5618,0,U,63715,999,6434,.44615146E-3,.12879E-3,0
STARLINK-33749,2025-087V,2026-06-16T13:52:54.109056,15.31709784,.00016119,53.1594,119.9645,96.7378,263.3807,0,U,63716,999,6434,.84628217E-3,.25996E-3,0
STARLINK-33725,2025-087W,2026-06-16T03:16:20.317728,15.30214483,.00012894,53.1604,122.1781,81.2994,278.8152,0,U,63717,999,6427,.80532024E-3,.23578E-3,0
STARLINK-33641,2025-087X,2026-06-16T13:26:00.812832,15.31714549,.00013235,53.1589,119.8445,93.1643,266.9510,0,U,63718,999,6434,.43998394E-3,.13319E-3,0
STARLINK-33727,2025-087Y,2026-06-16T13:39:16.383168,15.34402546,.0001438,53.1587,118.4866,69.4488,290.6669,0,U,63719,999,6436,.52327288E-3,.17346E-3,0
STARLINK-33757,2025-087Z,2026-06-16T03:31:31.920672,15.30207612,.00012068,53.1594,122.2419,82.5282,277.5856,0,U,63720,999,6427,.6574861E-3,.19168E-3,0
STARLINK-33774,2025-087AA,2026-06-16T13:39:27.616032,15.31717472,.00014097,53.1577,119.9075,107.2468,252.8687,0,U,63721,999,6434,.42856425E-3,.12964E-3,0
STARLINK-33767,2025-087AB,2026-06-16T03:13:17.915232,15.30210791,.00015464,53.1595,122.1668,69.2637,290.8529,0,U,63722,999,6427,.55805263E-3,.1621E-3,0
STARLINK-33806,2025-087AC,2026-06-16T14:20:47.181984,15.30208210,.00010615,53.1602,120.0810,76.7720,283.3399,0,U,63723,999,6434,.49135471E-3,.14225E-3,0
STARLINK-11677 [DTC],2025-089A,2026-06-15T17:53:40.681536,15.70881447,.00026655,43.0017,61.5108,255.7967,104.2604,0,U,63751,999,6555,.10629317E-2,.138487E-2,0
STARLINK-11702 [DTC],2025-089B,2026-06-16T10:02:35.890944,15.70939761,.00048899,43.0038,57.0826,270.8898,89.1409,0,U,63752,999,6566,.12225784E-2,.160226E-2,0
STARLINK-11706 [DTC],2025-089C,2026-06-16T14:14:21.266880,15.70870590,.00020939,43.0010,55.8054,258.0713,101.9920,0,U,63753,999,6569,.16446789E-2,.216454E-2,0
STARLINK-11662 [DTC],2025-089D,2026-06-16T04:11:38.310144,15.71056197,.00082657,43.0120,58.7037,273.2280,86.7642,0,U,63754,999,6567,.16208533E-2,.215265E-2,0
STARLINK-11681 [DTC],2025-089E,2026-06-15T23:52:16.857984,15.70889238,.00014969,43.0002,59.9353,246.8093,113.2617,0,U,63755,999,6559,.17276833E-2,.227892E-2,0
STARLINK-11688 [DTC],2025-089F,2026-06-15T23:29:20.514624,15.70923654,.0002635,43.0026,59.8054,256.2873,103.7701,0,U,63756,999,6548,.13903E-2,.182568E-2,0
STARLINK-11676 [DTC],2025-089G,2026-06-16T13:59:04.211232,15.71037559,.00029505,43.0022,55.7182,290.7734,69.2817,0,U,63757,999,6558,.10455293E-2,.137092E-2,0
STARLINK-11705 [DTC],2025-089H,2026-06-15T23:44:38.092992,15.70927916,.00020128,43.0008,59.8917,252.1359,107.9289,0,U,63758,999,6554,.14366984E-2,.188847E-2,0
STARLINK-11703 [DTC],2025-089J,2026-06-16T14:29:38.132448,15.70899869,.00021061,43.0021,55.8846,262.1355,97.9274,0,U,63759,999,6569,.1100962E-2,.143652E-2,0
STARLINK-11701 [DTC],2025-089K,2026-06-16T14:06:42.526080,15.71038695,.00047055,43.0016,55.7593,287.4397,72.5956,0,U,63760,999,6569,.99742632E-3,.130711E-2,0
